NORAD_CAT_ID,OBJECT_NAME,OBJECT_TYPE,EPOCH,MEAN_MOTION,ECCENTRICITY,INCLINATION,RA_OF_ASC_NODE,ARG_OF_PERICENTER,MEAN_ANOMALY,BSTAR,MEAN_MOTION_DOT,MEAN_MOTION_DDOT,TLE_LINE0,TLE_LINE1,TLE_LINE2,SEMIMAJOR_AXIS,PERIOD,APOGEE,PERIGEE,DECAYED
51996.0,STARLINK-3538,PAYLOAD,2023-03-13 11:52:50,15.08832487,0.0001282,53.2153,242.1734,99.9129,260.2007,5.0812e-05,5.21e-06,0.0,0 STARLINK-3538,1 51996U 22025AS  23072.49503105  .00000521  00000-0  50812-4 0  9990,2 51996  53.2153 242.1734 0001282  99.9129 260.2007 15.08832487 57551,6917.903,95.438,540.655,538.881,0.0
51996.0,STARLINK-3538,PAYLOAD,2023-03-13 21:25:09,15.0883948,0.0001301,53.2152,240.3895,97.4002,262.7138,0.00046799,7.168e-05,0.0,0 STARLINK-3538,1 51996U 22025AS  23072.89247270  .00007168  00000-0  46799-3 0  9994,2 51996  53.2152 240.3895 0001301  97.4002 262.7138 15.08839480 56093,6917.882,95.438,540.647,538.847,0.0
51996.0,STARLINK-3538,PAYLOAD,2023-03-14 10:08:14,15.08841703,0.0001399,53.2146,238.0111,89.0781,271.0371,0.0004946,7.593e-05,0.0,0 STARLINK-3538,1 51996U 22025AS  23073.42239499  .00007593  00000-0  49460-3 0  9998,2 51996  53.2146 238.0111 0001399  89.0781 271.0371 15.08841703 56171,6917.875,95.437,540.708,538.772,0.0
51996.0,STARLINK-3538,PAYLOAD,2023-03-14 21:15:56,15.08861076,0.0001437,53.2135,235.9298,87.9776,272.138,0.00083709,0.00013067,0.0,0 STARLINK-3538,1 51996U 22025AS  23073.88606883  .00013067  00000-0  83709-3 0  9990,2 51996  53.2135 235.9298 0001437  87.9776 272.1380 15.08861076 56240,6917.816,95.436,540.675,538.687,0.0
51996.0,STARLINK-3538,PAYLOAD,2023-03-15 03:37:29,15.08853034,0.000191,53.2139,234.7395,75.8718,284.2486,0.00030679,4.6e-05,0.0,0 STARLINK-3538,1 51996U 22025AS  23074.15103012  .00004600  00000-0  30679-3 0  9998,2 51996  53.2139 234.7395 0001910  75.8718 284.2486 15.08853034 57806,6917.841,95.437,541.027,538.384,0.0
51996.0,STARLINK-3538,PAYLOAD,2023-03-15 09:59:01,15.08851726,0.0001777,53.21,233.5511,70.9179,289.2006,0.00020686,3.007e-05,0.0,0 STARLINK-3538,1 51996U 22025AS  23074.41598793  .00003007  00000-0  20686-3 0  9998,2 51996  53.2100 233.5511 0001777  70.9179 289.2006 15.08851726 56324,6917.845,95.437,540.939,538.48,0.0
51996.0,STARLINK-3538,PAYLOAD,2023-03-16 03:28:16,15.08813241,0.0002501,53.2061,230.2806,80.9158,279.2116,-0.00075579,-0.00012289,0.0,0 STARLINK-3538,1 51996U 22025AS  23075.14463539 -.00012289  00000-0 -75579-3 0  9993,2 51996  53.2061 230.2806 0002501  80.9158 279.2116 15.08813241 57956,6917.962,95.439,541.557,538.097,0.0
51996.0,STARLINK-3538,PAYLOAD,2023-03-16 13:00:35,15.08817588,3.77e-05,53.2179,228.4924,131.63,228.4725,-0.00058374,-9.56e-05,0.0,0 STARLINK-3538,1 51996U 22025AS  23075.54207280 -.00009560  00000-0 -58374-3 0  9998,2 51996  53.2179 228.4924 0000377 131.6300 228.4725 15.08817588 56496,6917.949,95.439,540.075,539.553,0.0
51996.0,STARLINK-3538,PAYLOAD,2023-03-16 19:22:07,15.08828818,0.0001699,53.2106,227.3064,74.8724,285.2456,-0.00017283,-3.037e-05,0.0,0 STARLINK-3538,1 51996U 22025AS  23075.80703626 -.00003037  00000-0 -17283-3 0  9999,2 51996  53.2106 227.3064 0001699  74.8724 285.2456 15.08828818 58059,6917.915,95.438,540.955,538.604,0.0
51996.0,STARLINK-3538,PAYLOAD,2023-03-17 09:40:36,15.08831955,0.0001482,53.2133,224.6298,79.5937,280.5222,0.00013286,1.827e-05,0.0,0 STARLINK-3538,1 51996U 22025AS  23076.40320008  .00001827  00000-0  13286-3 0  9997,2 51996  53.2133 224.6298 0001482  79.5937 280.5222 15.08831955 56622,6917.905,95.438,540.795,538.745,0.0
51996.0,STARLINK-3538,PAYLOAD,2023-03-17 19:12:55,15.08841709,0.0001407,53.2114,222.8464,77.6916,282.4233,0.00065931,0.00010221,0.0,0 STARLINK-3538,1 51996U 22025AS  23076.80064073  .00010221  00000-0  65931-3 0  9990,2 51996  53.2114 222.8464 0001407  77.6916 282.4233 15.08841709 58206,6917.875,95.437,540.714,538.767,0.0
51996.0,STARLINK-3538,PAYLOAD,2023-03-18 20:39:04,15.0886906,0.000143,53.214,218.0874,88.9945,271.1211,0.00098544,0.00015443,0.0,0 STARLINK-3538,1 51996U 22025AS  23077.86047154  .00015443  00000-0  98544-3 0  9995,2 51996  53.2140 218.0874 0001430  88.9945 271.1211 15.08869060 56849,6917.792,95.436,540.646,538.667,0.0
51996.0,STARLINK-3538,PAYLOAD,2023-03-19 12:32:56,15.08846192,0.0001356,53.2135,215.1133,90.0289,270.0858,0.00023938,3.524e-05,0.0,0 STARLINK-3538,1 51996U 22025AS  23078.52287445  .00003524  00000-0  23938-3 0  9990,2 51996  53.2135 215.1133 0001356  90.0289 270.0858 15.08846192 58467,6917.861,95.437,540.665,538.788,0.0
51996.0,STARLINK-3538,PAYLOAD,2023-03-19 14:08:19,15.08845135,0.0001505,53.214,214.815,89.3491,270.7673,0.00017833,2.552e-05,0.0,0 STARLINK-3538,1 51996U 22025AS  23078.58911452  .00002552  00000-0  17833-3 0  9995,2 51996  53.2140 214.8150 0001505  89.3491 270.7673 15.08845135 56950,6917.865,95.437,540.771,538.689,0.0
51996.0,STARLINK-3538,PAYLOAD,2023-03-19 18:54:28,15.08856069,0.0001479,53.2145,213.9239,73.77,286.3455,0.00071291,0.00011081,0.0,0 STARLINK-3538,1 51996U 22025AS  23078.78783300  .00011081  00000-0  71291-3 0  9991,2 51996  53.2145 213.9239 0001479  73.7700 286.3455 15.08856069 56985,6917.831,95.437,540.719,538.673,0.0
51996.0,STARLINK-3538,PAYLOAD,2023-03-20 12:23:43,15.08854715,0.0001383,53.2151,210.6524,81.1974,278.9174,0.001412,0.00022264,0.0,0 STARLINK-3538,1 51996U 22025AS  23079.51647285  .00022264  00000-0  14120-2 0  9996,2 51996  53.2151 210.6524 0001383  81.1974 278.9174 15.08854715 58616,6917.835,95.437,540.657,538.744,0.0
51996.0,STARLINK-3538,PAYLOAD,2023-03-20 15:34:29,15.08868259,0.0001361,53.2151,210.0578,81.2227,278.892,0.0018595,0.00029453,0.0,0 STARLINK-3538,1 51996U 22025AS  23079.64895053  .00029453  00000-0  18595-2 0  9995,2 51996  53.2151 210.0578 0001361  81.2227 278.8920 15.08868259 57117,6917.794,95.436,540.601,538.718,0.0
51996.0,STARLINK-3538,PAYLOAD,2023-03-21 01:06:47,15.08839354,0.0001365,53.2152,208.2734,97.3349,262.7798,-0.0010065,-0.0001627,0.0,0 STARLINK-3538,1 51996U 22025AS  23080.04638806 -.00016270  00000-0 -10065-2 0  9991,2 51996  53.2152 208.2734 0001365  97.3349 262.7798 15.08839354 58691,6917.882,95.438,540.692,538.803,0.0
51996.0,STARLINK-3538,PAYLOAD,2023-03-21 12:14:30,15.08839781,0.0001067,53.2158,206.191,92.0751,268.0363,0.0011826,0.00018583,0.0,0 STARLINK-3538,1 51996U 22025AS  23080.51007050  .00018583  00000-0  11826-2 0  9997,2 51996  53.2158 206.1910 0001067  92.0751 268.0363 15.08839781 57249,6917.881,95.438,540.484,539.008,0.0
51996.0,STARLINK-3538,PAYLOAD,2023-03-21 13:49:53,15.08848205,0.0001122,53.2152,205.8941,86.7577,273.3544,0.0016998,0.00026874,0.0,0 STARLINK-3538,1 51996U 22025AS  23080.57630996  .00026874  00000-0  16998-2 0  9991,2 51996  53.2152 205.8941 0001122  86.7577 273.3544 15.08848205 58771,6917.855,95.437,540.496,538.944,0.0
51996.0,STARLINK-3538,PAYLOAD,2023-03-21 20:11:25,15.08870708,0.0001173,53.2152,204.7041,85.86,274.2526,0.0023008,0.0003655,0.0,0 STARLINK-3538,1 51996U 22025AS  23080.84126589  .00036550  00000-0  23008-2 0  9991,2 51996  53.2152 204.7041 0001173  85.8600 274.2526 15.08870708 57292,6917.787,95.436,540.463,538.84,0.0
51996.0,STARLINK-3538,PAYLOAD,2023-03-22 00:57:34,15.08834959,9.83e-05,53.2154,203.8121,118.4417,241.6674,-0.00041594,-6.9e-05,0.0,0 STARLINK-3538,1 51996U 22025AS  23081.03998749 -.00006900  00000-0 -41594-3 0  9997,2 51996  53.2154 203.8121 0000983 118.4417 241.6674 15.08834959 58842,6917.896,95.438,540.441,539.081,0.0
51996.0,STARLINK-3538,PAYLOAD,2023-03-22 12:05:17,15.08849879,0.0001188,53.2149,201.7309,101.9317,258.1808,0.0021078,0.00033426,0.0,0 STARLINK-3538,1 51996U 22025AS  23081.50367163  .00033426  00000-0  21078-2 0  9994,2 51996  53.2149 201.7309 0001188 101.9317 258.1808 15.08849879 58912,6917.85,95.437,540.537,538.893,0.0
51996.0,STARLINK-3538,PAYLOAD,2023-03-22 18:26:49,15.08868655,0.0001259,53.2152,200.5409,95.1551,264.9585,0.0025546,0.00040635,0.0,0 STARLINK-3538,1 51996U 22025AS  23081.76862907  .00040635  00000-0  25546-2 0  9992,2 51996  53.2152 200.5409 0001259  95.1551 264.9585 15.08868655 57433,6917.793,95.436,540.529,538.787,0.0
51996.0,STARLINK-3538,PAYLOAD,2023-03-23 11:56:04,15.08856525,0.0001226,53.2152,197.2697,136.1064,224.0026,0.0018251,0.00028891,0.0,0 STARLINK-3538,1 51996U 22025AS  23082.49727034  .00028891  00000-0  18251-2 0  9999,2 51996  53.2152 197.2697 0001226 136.1064 224.0026 15.08856525 59064,6917.83,95.437,540.543,538.847,0.0
51996.0,STARLINK-3538,PAYLOAD,2023-03-23 13:31:27,15.08857135,0.0001222,53.2151,196.9724,143.0136,217.094,0.0019563,0.00030998,0.0,0 STARLINK-3538,1 51996U 22025AS  23082.56350974  .00030998  00000-0  19563-2 0  9990,2 51996  53.2151 196.9724 0001222 143.0136 217.0940 15.08857135 57550,6917.828,95.436,540.538,538.848,0.0
51996.0,STARLINK-3538,PAYLOAD,2023-03-23 15:06:50,15.08860006,0.0001213,53.2151,196.6752,145.1057,215.0014,0.0021173,0.00033588,0.0,0 STARLINK-3538,1 51996U 22025AS  23082.62974916  .00033588  00000-0  21173-2 0  9993,2 51996  53.2151 196.6752 0001213 145.1057 215.0014 15.08860006 57565,6917.819,95.436,540.523,538.845,0.0
51996.0,STARLINK-3538,PAYLOAD,2023-03-24 07:00:41,15.08963163,0.0001352,53.2143,193.7022,121.0474,239.0651,0.010313,0.0016836,0.0,0 STARLINK-3538,1 51996U 22025AS  23083.29214135  .00168360  00000-0  10313-1 0  9997,2 51996  53.2143 193.7022 0001352 121.0474 239.0651 15.08963163 59185,6917.504,95.43,540.304,538.434,0.0
51996.0,STARLINK-3538,PAYLOAD,2023-03-24 11:46:49,15.08910629,0.0001387,53.2141,192.8131,76.4871,283.6275,0.0023943,0.00038098,0.0,0 STARLINK-3538,1 51996U 22025AS  23083.49085341  .00038098  00000-0  23943-2 0  9992,2 51996  53.2141 192.8131 0001387  76.4871 283.6275 15.08910629 59216,6917.665,95.433,540.489,538.57,0.0
51996.0,STARLINK-3538,PAYLOAD,2023-03-24 13:22:12,15.0891147,0.0001422,53.2144,192.5179,84.8193,275.2961,0.0022069,0.00035079,0.0,0 STARLINK-3538,1 51996U 22025AS  23083.55708952  .00035079  00000-0  22069-2 0  9993,2 51996  53.2144 192.5179 0001422  84.8193 275.2961 15.08911470 57704,6917.662,95.433,540.511,538.543,0.0
